CCSDS_OMM_VERS = 2.0
CREATION_DATE  = 
ORIGINATOR     = 

OBJECT_NAME    = SL-14 R/B
OBJECT_ID      = 1991-042B
CENTER_NAME    = EARTH
REF_FRAME      = TEME
TIME_SYSTEM    = UTC
MEAN_ELEMENT_THEORY = SGP/SGP4

EPOCH          = 2026-02-24T17:24:17.299872
MEAN_MOTION    = 14.81814415
ECCENTRICITY   = .0015576
INCLINATION    = 82.4900
RA_OF_ASC_NODE = 232.3412
ARG_OF_PERICENTER = 285.1575
MEAN_ANOMALY   = 74.7916

EPHEMERIS_TYPE = 0
CLASSIFICATION_TYPE = U
NORAD_CAT_ID   = 21423
ELEMENT_SET_NO = 999
REV_AT_EPOCH   = 85115
BSTAR          = .53223937E-4
MEAN_MOTION_DOT = .444E-5
MEAN_MOTION_DDOT = 0

CCSDS_OMM_VERS = 2.0
CREATION_DATE  = 
ORIGINATOR     = 

OBJECT_NAME    = ERS-1
OBJECT_ID      = 1991-050A
CENTER_NAME    = EARTH
REF_FRAME      = TEME
TIME_SYSTEM    = UTC
MEAN_ELEMENT_THEORY = SGP/SGP4

EPOCH          = 2026-02-25T01:06:38.735424
MEAN_MOTION    = 14.39437851
ECCENTRICITY   = .00310419
INCLINATION    = 98.7890
RA_OF_ASC_NODE = 73.9630
ARG_OF_PERICENTER = 238.7400
MEAN_ANOMALY   = 121.0745

EPHEMERIS_TYPE = 0
CLASSIFICATION_TYPE = U
NORAD_CAT_ID   = 21574
ELEMENT_SET_NO = 999
REV_AT_EPOCH   = 81391
BSTAR          = .10607059E-3
MEAN_MOTION_DOT = .285E-5
MEAN_MOTION_DDOT = 0

CCSDS_OMM_VERS = 2.0
CREATION_DATE  = 
ORIGINATOR     = 

OBJECT_NAME    = ARIANE 40 R/B
OBJECT_ID      = 1991-050F
CENTER_NAME    = EARTH
REF_FRAME      = TEME
TIME_SYSTEM    = UTC
MEAN_ELEMENT_THEORY = SGP/SGP4

EPOCH          = 2026-02-25T03:03:19.336896
MEAN_MOTION    = 14.42882973
ECCENTRICITY   = .00043439
INCLINATION    = 98.2041
RA_OF_ASC_NODE = 108.8337
ARG_OF_PERICENTER = 108.3367
MEAN_ANOMALY   = 251.8297

EPHEMERIS_TYPE = 0
CLASSIFICATION_TYPE = U
NORAD_CAT_ID   = 21610
ELEMENT_SET_NO = 999
REV_AT_EPOCH   = 81718
BSTAR          = .84694309E-4
MEAN_MOTION_DOT = .241E-5
MEAN_MOTION_DDOT = 0

CCSDS_OMM_VERS = 2.0
CREATION_DATE  = 
ORIGINATOR     = 

OBJECT_NAME    = INTERCOSMOS 25
OBJECT_ID      = 1991-086A
CENTER_NAME    = EARTH
REF_FRAME      = TEME
TIME_SYSTEM    = UTC
MEAN_ELEMENT_THEORY = SGP/SGP4

EPOCH          = 2026-02-25T04:35:45.215520
MEAN_MOTION    = 12.11958918
ECCENTRICITY   = .14870955
INCLINATION    = 82.6072
RA_OF_ASC_NODE = 317.5612
ARG_OF_PERICENTER = 143.8565
MEAN_ANOMALY   = 227.2950

EPHEMERIS_TYPE = 0
CLASSIFICATION_TYPE = U
NORAD_CAT_ID   = 21819
ELEMENT_SET_NO = 999
REV_AT_EPOCH   = 49517
BSTAR          = .26895296E-3
MEAN_MOTION_DOT = .1403E-4
MEAN_MOTION_DDOT = 0

CCSDS_OMM_VERS = 2.0
CREATION_DATE  = 
ORIGINATOR     = 

OBJECT_NAME    = SL-8 R/B
OBJECT_ID      = 1992-008B
CENTER_NAME    = EARTH
REF_FRAME      = TEME
TIME_SYSTEM    = UTC
MEAN_ELEMENT_THEORY = SGP/SGP4

EPOCH          = 2026-02-25T03:41:01.020192
MEAN_MOTION    = 13.75969931
ECCENTRICITY   = .00348931
INCLINATION    = 82.9235
RA_OF_ASC_NODE = 277.1058
ARG_OF_PERICENTER = 167.6842
MEAN_ANOMALY   = 311.4648

EPHEMERIS_TYPE = 0
CLASSIFICATION_TYPE = U
NORAD_CAT_ID   = 21876
ELEMENT_SET_NO = 999
REV_AT_EPOCH   = 70769
BSTAR          = -.3363115E-5
MEAN_MOTION_DOT = .12E-6
MEAN_MOTION_DDOT = 0

CCSDS_OMM_VERS = 2.0
CREATION_DATE  = 
ORIGINATOR     = 

OBJECT_NAME    = SL-8 R/B
OBJECT_ID      = 1992-020B
CENTER_NAME    = EARTH
REF_FRAME      = TEME
TIME_SYSTEM    = UTC
MEAN_ELEMENT_THEORY = SGP/SGP4

EPOCH          = 2026-02-25T07:48:06.027264
MEAN_MOTION    = 13.75547886
ECCENTRICITY   = .00282207
INCLINATION    = 82.9344
RA_OF_ASC_NODE = 162.9390
ARG_OF_PERICENTER = 334.6099
MEAN_ANOMALY   = 79.2073

EPHEMERIS_TYPE = 0
CLASSIFICATION_TYPE = U
NORAD_CAT_ID   = 21938
ELEMENT_SET_NO = 999
REV_AT_EPOCH   = 69943
BSTAR          = .63599239E-4
MEAN_MOTION_DOT = .76E-6
MEAN_MOTION_DDOT = 0

CCSDS_OMM_VERS = 2.0
CREATION_DATE  = 
ORIGINATOR     = 

OBJECT_NAME    = USA 81
OBJECT_ID      = 1992-023A
CENTER_NAME    = EARTH
REF_FRAME      = TEME
TIME_SYSTEM    = UTC
MEAN_ELEMENT_THEORY = SGP/SGP4

EPOCH          = 2026-02-25T07:03:18.843840
MEAN_MOTION    = 14.32363236
ECCENTRICITY   = .00027449
INCLINATION    = 85.0108
RA_OF_ASC_NODE = 138.5903
ARG_OF_PERICENTER = 88.4169
MEAN_ANOMALY   = 271.7338

EPHEMERIS_TYPE = 0
CLASSIFICATION_TYPE = U
NORAD_CAT_ID   = 21949
ELEMENT_SET_NO = 999
REV_AT_EPOCH   = 9301
BSTAR          = .5503842E-4
MEAN_MOTION_DOT = .169E-5
MEAN_MOTION_DDOT = 0

CCSDS_OMM_VERS = 2.0
CREATION_DATE  = 
ORIGINATOR     = 

OBJECT_NAME    = COSMOS 2219
OBJECT_ID      = 1992-076A
CENTER_NAME    = EARTH
REF_FRAME      = TEME
TIME_SYSTEM    = UTC
MEAN_ELEMENT_THEORY = SGP/SGP4

EPOCH          = 2026-02-25T06:47:56.441760
MEAN_MOTION    = 14.14083983
ECCENTRICITY   = .00195754
INCLINATION    = 71.0599
RA_OF_ASC_NODE = 44.0024
ARG_OF_PERICENTER = 223.6079
MEAN_ANOMALY   = 136.3497

EPHEMERIS_TYPE = 0
CLASSIFICATION_TYPE = U
NORAD_CAT_ID   = 22219
ELEMENT_SET_NO = 999
REV_AT_EPOCH   = 71662
BSTAR          = .21178437E-3
MEAN_MOTION_DOT = .357E-5
MEAN_MOTION_DDOT = 0

CCSDS_OMM_VERS = 2.0
CREATION_DATE  = 
ORIGINATOR     = 

OBJECT_NAME    = SL-16 R/B
OBJECT_ID      = 1992-076B
CENTER_NAME    = EARTH
REF_FRAME      = TEME
TIME_SYSTEM    = UTC
MEAN_ELEMENT_THEORY = SGP/SGP4

EPOCH          = 2026-02-24T11:50:41.718624
MEAN_MOTION    = 14.16856265
ECCENTRICITY   = .00109215
INCLINATION    = 70.9984
RA_OF_ASC_NODE = 216.1695
ARG_OF_PERICENTER = 120.6200
MEAN_ANOMALY   = 296.0036

EPHEMERIS_TYPE = 0
CLASSIFICATION_TYPE = U
NORAD_CAT_ID   = 22220
ELEMENT_SET_NO = 999
REV_AT_EPOCH   = 71996
BSTAR          = .15828215E-3
MEAN_MOTION_DOT = .27E-5
MEAN_MOTION_DDOT = 0

CCSDS_OMM_VERS = 2.0
CREATION_DATE  = 
ORIGINATOR     = 

OBJECT_NAME    = COSMOS 2221
OBJECT_ID      = 1992-080A
CENTER_NAME    = EARTH
REF_FRAME      = TEME
TIME_SYSTEM    = UTC
MEAN_ELEMENT_THEORY = SGP/SGP4

EPOCH          = 2026-02-25T03:08:37.121280
MEAN_MOTION    = 14.96145631
ECCENTRICITY   = .0013035
INCLINATION    = 82.5029
RA_OF_ASC_NODE = 291.1116
ARG_OF_PERICENTER = 231.8762
MEAN_ANOMALY   = 128.1286

EPHEMERIS_TYPE = 0
CLASSIFICATION_TYPE = U
NORAD_CAT_ID   = 22236
ELEMENT_SET_NO = 999
REV_AT_EPOCH   = 77891
BSTAR          = .13689604E-3
MEAN_MOTION_DOT = .1568E-4
MEAN_MOTION_DDOT = 0

CCSDS_OMM_VERS = 2.0
CREATION_DATE  = 
ORIGINATOR     = 

OBJECT_NAME    = SL-16 R/B
OBJECT_ID      = 1992-093B
CENTER_NAME    = EARTH
REF_FRAME      = TEME
TIME_SYSTEM    = UTC
MEAN_ELEMENT_THEORY = SGP/SGP4

EPOCH          = 2026-02-25T07:14:15.283392
MEAN_MOTION    = 14.15449096
ECCENTRICITY   = .00059818
INCLINATION    = 71.0228
RA_OF_ASC_NODE = 30.2703
ARG_OF_PERICENTER = 307.0848
MEAN_ANOMALY   = 52.9728

EPHEMERIS_TYPE = 0
CLASSIFICATION_TYPE = U
NORAD_CAT_ID   = 22285
ELEMENT_SET_NO = 999
REV_AT_EPOCH   = 71140
BSTAR          = .88877211E-4
MEAN_MOTION_DOT = .126E-5
MEAN_MOTION_DDOT = 0

CCSDS_OMM_VERS = 2.0
CREATION_DATE  = 
ORIGINATOR     = 

OBJECT_NAME    = COSMOS 2228
OBJECT_ID      = 1992-094A
CENTER_NAME    = EARTH
REF_FRAME      = TEME
TIME_SYSTEM    = UTC
MEAN_ELEMENT_THEORY = SGP/SGP4

EPOCH          = 2026-02-25T05:20:19.208256
MEAN_MOTION    = 14.97121406
ECCENTRICITY   = .0017679
INCLINATION    = 82.5147
RA_OF_ASC_NODE = 249.2497
ARG_OF_PERICENTER = 348.5949
MEAN_ANOMALY   = 11.4870

EPHEMERIS_TYPE = 0
CLASSIFICATION_TYPE = U
NORAD_CAT_ID   = 22286
ELEMENT_SET_NO = 999
REV_AT_EPOCH   = 77419
BSTAR          = .18330087E-3
MEAN_MOTION_DOT = .2147E-4
MEAN_MOTION_DDOT = 0

